CCSDS_OMM_VERS = 2.0
CREATION_DATE  = 
ORIGINATOR     = 

OBJECT_NAME    = COSMOS 1933
OBJECT_ID      = 1988-020A
CENTER_NAME    = EARTH
REF_FRAME      = TEME
TIME_SYSTEM    = UTC
MEAN_ELEMENT_THEORY = SGP/SGP4

EPOCH          = 2026-02-12T03:29:42.803520
MEAN_MOTION    = 15.17759918
ECCENTRICITY   = .00029294
INCLINATION    = 82.5118
RA_OF_ASC_NODE = 276.1853
ARG_OF_PERICENTER = 305.8000
MEAN_ANOMALY   = 54.2961

EPHEMERIS_TYPE = 0
CLASSIFICATION_TYPE = U
NORAD_CAT_ID   = 18958
ELEMENT_SET_NO = 999
REV_AT_EPOCH   = 4635
BSTAR          = .18726743E-3
MEAN_MOTION_DOT = .381E-4
MEAN_MOTION_DDOT = 0

CCSDS_OMM_VERS = 2.0
CREATION_DATE  = 
ORIGINATOR     = 

OBJECT_NAME    = SL-3 R/B
OBJECT_ID      = 1988-032B
CENTER_NAME    = EARTH
REF_FRAME      = TEME
TIME_SYSTEM    = UTC
MEAN_ELEMENT_THEORY = SGP/SGP4

EPOCH          = 2026-02-12T10:46:31.367424
MEAN_MOTION    = 15.19583108
ECCENTRICITY   = .0025015
INCLINATION    = 97.5149
RA_OF_ASC_NODE = 26.8039
ARG_OF_PERICENTER = 325.8896
MEAN_ANOMALY   = 34.0730

EPHEMERIS_TYPE = 0
CLASSIFICATION_TYPE = U
NORAD_CAT_ID   = 19046
ELEMENT_SET_NO = 999
REV_AT_EPOCH   = 4827
BSTAR          = .31072E-3
MEAN_MOTION_DOT = .6596E-4
MEAN_MOTION_DDOT = 0

CCSDS_OMM_VERS = 2.0
CREATION_DATE  = 
ORIGINATOR     = 

OBJECT_NAME    = SL-16 R/B
OBJECT_ID      = 1988-039B
CENTER_NAME    = EARTH
REF_FRAME      = TEME
TIME_SYSTEM    = UTC
MEAN_ELEMENT_THEORY = SGP/SGP4

EPOCH          = 2026-02-12T11:20:49.894944
MEAN_MOTION    = 14.19612035
ECCENTRICITY   = .0021211
INCLINATION    = 71.0146
RA_OF_ASC_NODE = 121.8720
ARG_OF_PERICENTER = 12.6622
MEAN_ANOMALY   = 347.5031

EPHEMERIS_TYPE = 0
CLASSIFICATION_TYPE = U
NORAD_CAT_ID   = 19120
ELEMENT_SET_NO = 999
REV_AT_EPOCH   = 95480
BSTAR          = .77183E-4
MEAN_MOTION_DOT = .115E-5
MEAN_MOTION_DDOT = 0

CCSDS_OMM_VERS = 2.0
CREATION_DATE  = 
ORIGINATOR     = 

OBJECT_NAME    = COSMOS 1953
OBJECT_ID      = 1988-050A
CENTER_NAME    = EARTH
REF_FRAME      = TEME
TIME_SYSTEM    = UTC
MEAN_ELEMENT_THEORY = SGP/SGP4

EPOCH          = 2026-02-12T10:01:07.712832
MEAN_MOTION    = 15.28021413
ECCENTRICITY   = .0010848
INCLINATION    = 82.5089
RA_OF_ASC_NODE = 183.6478
ARG_OF_PERICENTER = 208.4876
MEAN_ANOMALY   = 151.5772

EPHEMERIS_TYPE = 0
CLASSIFICATION_TYPE = U
NORAD_CAT_ID   = 19210
ELEMENT_SET_NO = 999
REV_AT_EPOCH   = 3392
BSTAR          = .43981E-3
MEAN_MOTION_DOT = .12075E-3
MEAN_MOTION_DDOT = 0

CCSDS_OMM_VERS = 2.0
CREATION_DATE  = 
ORIGINATOR     = 

OBJECT_NAME    = SL-8 R/B
OBJECT_ID      = 1988-053B
CENTER_NAME    = EARTH
REF_FRAME      = TEME
TIME_SYSTEM    = UTC
MEAN_ELEMENT_THEORY = SGP/SGP4

EPOCH          = 2026-02-12T11:46:21.656352
MEAN_MOTION    = 14.38900602
ECCENTRICITY   = .0020553
INCLINATION    = 74.0485
RA_OF_ASC_NODE = 158.9108
ARG_OF_PERICENTER = 342.7324
MEAN_ANOMALY   = 89.5646

EPHEMERIS_TYPE = 0
CLASSIFICATION_TYPE = U
NORAD_CAT_ID   = 19257
ELEMENT_SET_NO = 999
REV_AT_EPOCH   = 97297
BSTAR          = .93288E-4
MEAN_MOTION_DOT = .262E-5
MEAN_MOTION_DDOT = 0

CCSDS_OMM_VERS = 2.0
CREATION_DATE  = 
ORIGINATOR     = 

OBJECT_NAME    = COSMOS 1975
OBJECT_ID      = 1988-093A
CENTER_NAME    = EARTH
REF_FRAME      = TEME
TIME_SYSTEM    = UTC
MEAN_ELEMENT_THEORY = SGP/SGP4

EPOCH          = 2026-02-12T05:56:45.330432
MEAN_MOTION    = 15.27626334
ECCENTRICITY   = .0010348
INCLINATION    = 82.5218
RA_OF_ASC_NODE = 143.2089
ARG_OF_PERICENTER = 258.3250
MEAN_ANOMALY   = 101.6828

EPHEMERIS_TYPE = 0
CLASSIFICATION_TYPE = U
NORAD_CAT_ID   = 19573
ELEMENT_SET_NO = 999
REV_AT_EPOCH   = 1552
BSTAR          = .37628E-3
MEAN_MOTION_DOT = .10209E-3
MEAN_MOTION_DDOT = 0

CCSDS_OMM_VERS = 2.0
CREATION_DATE  = 
ORIGINATOR     = 

OBJECT_NAME    = SL-14 R/B
OBJECT_ID      = 1988-093B
CENTER_NAME    = EARTH
REF_FRAME      = TEME
TIME_SYSTEM    = UTC
MEAN_ELEMENT_THEORY = SGP/SGP4

EPOCH          = 2026-02-12T11:35:02.422752
MEAN_MOTION    = 14.85627408
ECCENTRICITY   = .002212
INCLINATION    = 82.5278
RA_OF_ASC_NODE = 65.7131
ARG_OF_PERICENTER = 119.5517
MEAN_ANOMALY   = 356.8135

EPHEMERIS_TYPE = 0
CLASSIFICATION_TYPE = U
NORAD_CAT_ID   = 19574
ELEMENT_SET_NO = 999
REV_AT_EPOCH   = 99729
BSTAR          = .56348E-4
MEAN_MOTION_DOT = .515E-5
MEAN_MOTION_DDOT = 0

CCSDS_OMM_VERS = 2.0
CREATION_DATE  = 
ORIGINATOR     = 

OBJECT_NAME    = SL-16 R/B
OBJECT_ID      = 1988-102B
CENTER_NAME    = EARTH
REF_FRAME      = TEME
TIME_SYSTEM    = UTC
MEAN_ELEMENT_THEORY = SGP/SGP4

EPOCH          = 2026-02-12T11:25:55.100352
MEAN_MOTION    = 14.16149533
ECCENTRICITY   = .0012628
INCLINATION    = 70.9982
RA_OF_ASC_NODE = 204.5440
ARG_OF_PERICENTER = 42.8694
MEAN_ANOMALY   = 317.3411

EPHEMERIS_TYPE = 0
CLASSIFICATION_TYPE = U
NORAD_CAT_ID   = 19650
ELEMENT_SET_NO = 999
REV_AT_EPOCH   = 92332
BSTAR          = .17819E-3
MEAN_MOTION_DOT = .305E-5
MEAN_MOTION_DDOT = 0

CCSDS_OMM_VERS = 2.0
CREATION_DATE  = 
ORIGINATOR     = 

OBJECT_NAME    = INTERCOSMOS 24
OBJECT_ID      = 1989-080A
CENTER_NAME    = EARTH
REF_FRAME      = TEME
TIME_SYSTEM    = UTC
MEAN_ELEMENT_THEORY = SGP/SGP4

EPOCH          = 2026-02-12T05:26:35.820672
MEAN_MOTION    = 12.59522190
ECCENTRICITY   = .1187824
INCLINATION    = 82.6062
RA_OF_ASC_NODE = 120.9789
ARG_OF_PERICENTER = 351.9576
MEAN_ANOMALY   = 6.3851

EPHEMERIS_TYPE = 0
CLASSIFICATION_TYPE = U
NORAD_CAT_ID   = 20261
ELEMENT_SET_NO = 999
REV_AT_EPOCH   = 66359
BSTAR          = .15659E-3
MEAN_MOTION_DOT = .541E-5
MEAN_MOTION_DDOT = 0

CCSDS_OMM_VERS = 2.0
CREATION_DATE  = 
ORIGINATOR     = 

OBJECT_NAME    = SL-14 R/B
OBJECT_ID      = 1989-080C
CENTER_NAME    = EARTH
REF_FRAME      = TEME
TIME_SYSTEM    = UTC
MEAN_ELEMENT_THEORY = SGP/SGP4

EPOCH          = 2026-02-12T10:19:15.362688
MEAN_MOTION    = 12.50461886
ECCENTRICITY   = .1229526
INCLINATION    = 82.5949
RA_OF_ASC_NODE = 189.4004
ARG_OF_PERICENTER = 242.5056
MEAN_ANOMALY   = 104.5890

EPHEMERIS_TYPE = 0
CLASSIFICATION_TYPE = U
NORAD_CAT_ID   = 20262
ELEMENT_SET_NO = 999
REV_AT_EPOCH   = 65699
BSTAR          = .14985E-3
MEAN_MOTION_DOT = .496E-5
MEAN_MOTION_DDOT = 0

CCSDS_OMM_VERS = 2.0
CREATION_DATE  = 
ORIGINATOR     = 

OBJECT_NAME    = DELTA 1 R/B
OBJECT_ID      = 1989-089B
CENTER_NAME    = EARTH
REF_FRAME      = TEME
TIME_SYSTEM    = UTC
MEAN_ELEMENT_THEORY = SGP/SGP4

EPOCH          = 2026-02-12T12:19:08.090112
MEAN_MOTION    = 14.50642172
ECCENTRICITY   = .0068511
INCLINATION    = 97.0724
RA_OF_ASC_NODE = 254.9530
ARG_OF_PERICENTER = 201.1451
MEAN_ANOMALY   = 158.6913

EPHEMERIS_TYPE = 0
CLASSIFICATION_TYPE = U
NORAD_CAT_ID   = 20323
ELEMENT_SET_NO = 999
REV_AT_EPOCH   = 89208
BSTAR          = .10956E-3
MEAN_MOTION_DOT = .408E-5
MEAN_MOTION_DDOT = 0

CCSDS_OMM_VERS = 2.0
CREATION_DATE  = 
ORIGINATOR     = 

OBJECT_NAME    = ARIANE 40 R/B
OBJECT_ID      = 1990-005H
CENTER_NAME    = EARTH
REF_FRAME      = TEME
TIME_SYSTEM    = UTC
MEAN_ELEMENT_THEORY = SGP/SGP4

EPOCH          = 2026-02-12T04:06:28.586880
MEAN_MOTION    = 14.39853293
ECCENTRICITY   = .00089135
INCLINATION    = 98.3142
RA_OF_ASC_NODE = 104.5859
ARG_OF_PERICENTER = 282.5681
MEAN_ANOMALY   = 77.4510

EPHEMERIS_TYPE = 0
CLASSIFICATION_TYPE = U
NORAD_CAT_ID   = 20443
ELEMENT_SET_NO = 999
REV_AT_EPOCH   = 88913
BSTAR          = .10654701E-3
MEAN_MOTION_DOT = .292E-5
MEAN_MOTION_DDOT = 0

