COSMOS 1933             
1 18958U 88020A   26043.14563430  .00003810  00000+0  18727-3 0  9999
2 18958  82.5118 276.1853 0002929 305.8000  54.2961 15.17759918 46356
SL-3 R/B                
1 19046U 88032B   26043.44897416  .00006596  00000+0  31072-3 0  9990
2 19046  97.5149  26.8039 0025015 325.8896  34.0730 15.19583108 48278
SL-16 R/B               
1 19120U 88039B   26043.47279971  .00000115  00000+0  77183-4 0  9998
2 19120  71.0146 121.8720 0021211  12.6622 347.5031 14.19612035954802
COSMOS 1953             
1 19210U 88050A   26043.41745038  .00012075  00000+0  43981-3 0  9993
2 19210  82.5089 183.6478 0010848 208.4876 151.5772 15.28021413 33922
SL-8 R/B                
1 19257U 88053B   26043.49052843  .00000262  00000+0  93288-4 0  9991
2 19257  74.0485 158.9108 0020553 342.7324  89.5646 14.38900602972971
COSMOS 1975             
1 19573U 88093A   26043.24774688  .00010209  00000+0  37628-3 0  9994
2 19573  82.5218 143.2089 0010348 258.3250 101.6828 15.27626334 15529
SL-14 R/B               
1 19574U 88093B   26043.48266693  .00000515  00000+0  56348-4 0  9993
2 19574  82.5278  65.7131 0022120 119.5517 356.8135 14.85627408997291
SL-16 R/B               
1 19650U 88102B   26043.47633218  .00000305  00000+0  17819-3 0  9995
2 19650  70.9982 204.5440 0012628  42.8694 317.3411 14.16149533923325
INTERCOSMOS 24          
1 20261U 89080A   26043.22680348  .00000541  00000+0  15659-3 0  9992
2 20261  82.6062 120.9789 1187824 351.9576   6.3851 12.59522190663598
SL-14 R/B               
1 20262U 89080C   26043.43003892  .00000496  00000+0  14985-3 0  9999
2 20262  82.5949 189.4004 1229526 242.5056 104.5890 12.50461886656991
DELTA 1 R/B             
1 20323U 89089B   26043.51328808  .00000408  00000+0  10956-3 0  9999
2 20323  97.0724 254.9530 0068511 201.1451 158.6913 14.50642172892086
ARIANE 40 R/B           
1 20443U 90005H   26043.17116420  .00000292  00000+0  10655-3 0  9996
2 20443  98.3142 104.5859 0008913 282.5681  77.4510 14.39853293889137
